PHISAT 2                
1 60470U 24149C   26068.78834181  .00008925  00000+0  31421-3 0  9996
2 60470  97.3806 148.6498 0001175 168.6230 191.5037 15.29548631 86792
STARLINK-36512          
1 67504U 26012M   26068.02805500  .00037528  00000+0  13655-2 0  9991
2 67504  43.0007 317.8769 0001212 256.6036 103.4681 15.27601615  7669
